STARLINK-5983
1 57224U 23094G   26090.82405362  .00058539  00000+0  21449-2 0  9996
2 57224  43.0015 265.4638 0001285 270.9389  89.1315 15.27194919150509
STARLINK-6369
1 57374U 23099AY  26090.37594965  .00099240  00000+0  36034-2 0  9995
2 57374  43.0008 101.2782 0001567 277.9249  82.1425 15.27251771149726
STARLINK-30501
1 57917U 23147E   26090.35807734 -.00154933  00000+0 -58036-2 0  9990
2 57917  43.0000 202.6874 0000678  14.6884 345.3987 15.27216094139930
STARLINK-31531
1 59477U 24068Y   26090.75783458 -.00046198  00000+0 -16975-2 0  9995
2 59477  43.0025 214.7384 0001535 166.2727 193.8167 15.27236458112521
